HIMAWARI-8              
1 40267U 14060A   24124.57966159 -.00000278  00000+0  00000+0 0  9997
2 40267   0.0268 176.9382 0001121 268.6615 125.6837  1.00273330 34998
